NORAD_CAT_ID,OBJECT_NAME,OBJECT_TYPE,EPOCH,MEAN_MOTION,ECCENTRICITY,INCLINATION,RA_OF_ASC_NODE,ARG_OF_PERICENTER,MEAN_ANOMALY,BSTAR,MEAN_MOTION_DOT,MEAN_MOTION_DDOT,TLE_LINE0,TLE_LINE1,TLE_LINE2,SEMIMAJOR_AXIS,PERIOD,APOGEE,PERIGEE,DECAYED
53920.0,STARLINK-5025,PAYLOAD,2023-03-02 19:56:21,15.08832498,0.0001408,53.2149,224.8311,93.75,266.3653,0.00018609,2.674e-05,0.0,0 STARLINK-5025,1 53920U 22119AL  23061.83080677  .00002674  00000-0  18609-3 0  9991,2 53920  53.2149 224.8311 0001408  93.7500 266.3653 15.08832498 24918,6917.903,95.438,540.742,538.794,0.0
53920.0,STARLINK-5025,PAYLOAD,2023-03-03 11:50:13,15.0885035,0.0001362,53.2156,221.8571,94.0066,266.1081,0.00076086,0.00011845,0.0,0 STARLINK-5025,1 53920U 22119AL  23062.49320686  .00011845  00000-0  76086-3 0  9994,2 53920  53.2156 221.8571 0001362  94.0066 266.1081 15.08850350 25439,6917.849,95.437,540.656,538.772,0.0
53920.0,STARLINK-5025,PAYLOAD,2023-03-03 16:36:22,15.0886139,0.0001356,53.2155,220.9652,93.0589,267.0558,0.0012285,0.00019329,0.0,0 STARLINK-5025,1 53920U 22119AL  23062.69192508  .00019329  00000-0  12285-2 0  9991,2 53920  53.2155 220.9652 0001356  93.0589 267.0558 15.08861390 25042,6917.815,95.436,540.618,538.742,0.0
53920.0,STARLINK-5025,PAYLOAD,2023-03-04 03:44:03,15.08871706,3.23e-05,53.219,218.8806,237.0369,123.0592,0.0012301,0.0001936,0.0,0 STARLINK-5025,1 53920U 22119AL  23063.15559679  .00019360  00000-0  12301-2 0  9993,2 53920  53.2190 218.8806 0000323 237.0369 123.0592 15.08871706 25116,6917.783,95.436,539.872,539.425,0.0
53920.0,STARLINK-5025,PAYLOAD,2023-03-04 10:05:36,15.08847426,0.0002131,53.2162,217.6951,82.9526,277.1709,0.00034244,5.167e-05,0.0,0 STARLINK-5025,1 53920U 22119AL  23063.42056653  .00005167  00000-0  34244-3 0  9998,2 53920  53.2162 217.6951 0002131  82.9526 277.1709 15.08847426 25151,6917.858,95.437,541.197,538.248,0.0
53920.0,STARLINK-5025,PAYLOAD,2023-03-04 16:27:09,15.08855654,0.0002006,53.2142,216.5037,85.0914,275.0308,0.00048527,7.447e-05,0.0,0 STARLINK-5025,1 53920U 22119AL  23063.68552386  .00007447  00000-0  48527-3 0  9992,2 53920  53.2142 216.5037 0002006  85.0914 275.0308 15.08855654 25613,6917.833,95.437,541.085,538.31,0.0
53920.0,STARLINK-5025,PAYLOAD,2023-03-05 09:56:24,15.08841392,0.00018,53.2158,213.2333,90.813,269.3068,0.00022766,3.337e-05,0.0,0 STARLINK-5025,1 53920U 22119AL  23064.41416904  .00003337  00000-0  22766-3 0  9990,2 53920  53.2158 213.2333 0001800  90.8130 269.3068 15.08841392 25307,6917.876,95.437,540.986,538.496,0.0
53920.0,STARLINK-5025,PAYLOAD,2023-03-06 09:47:11,15.08846495,0.0001714,53.2149,208.7731,97.0898,263.0289,0.00050537,7.766e-05,0.0,0 STARLINK-5025,1 53920U 22119AL  23065.40777081  .00007766  00000-0  50537-3 0  9993,2 53920  53.2149 208.7731 0001714  97.0898 263.0289 15.08846495 25879,6917.861,95.437,540.911,538.54,0.0
53920.0,STARLINK-5025,PAYLOAD,2023-03-07 09:37:58,15.08844647,5.95e-05,53.2181,204.3133,96.494,263.612,0.00034721,5.243e-05,0.0,0 STARLINK-5025,1 53920U 22119AL  23066.40137043  .00005243  00000-0  34721-3 0  9997,2 53920  53.2181 204.3133 0000595  96.4940 263.6120 15.08844647 25608,6917.866,95.437,540.143,539.32,0.0
53920.0,STARLINK-5025,PAYLOAD,2023-03-07 15:59:30,15.08848812,2.19e-05,53.2212,203.1257,84.5633,275.5384,0.00055083,8.492e-05,0.0,0 STARLINK-5025,1 53920U 22119AL  23066.66632988  .00008492  00000-0  55083-3 0  9996,2 53920  53.2212 203.1257 0000219  84.5633 275.5384 15.08848812 26060,6917.853,95.437,539.87,539.567,0.0
53920.0,STARLINK-5025,PAYLOAD,2023-03-08 09:28:45,15.0883527,0.0001294,53.2162,199.8535,89.8039,270.3101,-1.1737e-05,-4.75e-06,0.0,0 STARLINK-5025,1 53920U 22119AL  23067.39497401 -.00000475  00000-0 -11737-4 0  9990,2 53920  53.2162 199.8535 0001294  89.8039 270.3101 15.08835270 25755,6917.895,95.438,540.655,538.865,0.0
53920.0,STARLINK-5025,PAYLOAD,2023-03-08 15:50:17,15.08847574,0.0001806,53.223,198.6661,108.383,251.7359,0.00020095,2.912e-05,0.0,0 STARLINK-5025,1 53920U 22119AL  23067.65993051  .00002912  00000-0  20095-3 0  9993,2 53920  53.2230 198.6661 0001806 108.3830 251.7359 15.08847574 25795,6917.857,95.437,540.972,538.473,0.0
53920.0,STARLINK-5025,PAYLOAD,2023-03-09 09:19:33,15.08832942,7.46e-05,53.2134,195.3897,74.5917,285.5157,-4.6047e-05,-1.02e-05,0.0,0 STARLINK-5025,1 53920U 22119AL  23068.38857703 -.00001020  00000-0 -46047-4 0  9994,2 53920  53.2134 195.3897 0000746  74.5917 285.5157 15.08832942 25902,6917.902,95.438,540.283,539.251,0.0
53920.0,STARLINK-5025,PAYLOAD,2023-03-10 12:21:07,15.08835731,0.0001528,53.2173,190.3394,86.7336,273.3831,0.00019479,2.813e-05,0.0,0 STARLINK-5025,1 53920U 22119AL  23069.51466851  .00002813  00000-0  19479-3 0  9997,2 53920  53.2173 190.3394 0001528  86.7336 273.3831 15.08835731 26073,6917.893,95.438,540.815,538.701,0.0
53920.0,STARLINK-5025,PAYLOAD,2023-03-11 01:04:11,15.08846512,0.0001008,53.2176,187.9586,96.571,263.5397,0.00035656,5.392e-05,0.0,0 STARLINK-5025,1 53920U 22119AL  23070.04458209  .00005392  00000-0  35656-3 0  9995,2 53920  53.2176 187.9586 0001008  96.5710 263.5397 15.08846512 26155,6917.86,95.437,540.423,539.028,0.0
53920.0,STARLINK-5025,PAYLOAD,2023-03-11 07:25:44,15.08843142,0.0001709,53.2148,186.7701,93.1159,267.0028,0.00027413,4.078e-05,0.0,0 STARLINK-5025,1 53920U 22119AL  23070.30954582  .00004078  00000-0  27413-3 0  9991,2 53920  53.2148 186.7701 0001709  93.1159 267.0028 15.08843142 26615,6917.871,95.437,540.918,538.554,0.0
53920.0,STARLINK-5025,PAYLOAD,2023-03-11 16:58:03,15.08848847,0.0001878,53.2134,184.9853,93.4734,266.6473,0.00031477,4.726e-05,0.0,0 STARLINK-5025,1 53920U 22119AL  23070.70698306  .00004726  00000-0  31477-3 0  9999,2 53920  53.2134 184.9853 0001878  93.4734 266.6473 15.08848847 26679,6917.853,95.437,541.018,538.419,0.0
53920.0,STARLINK-5025,PAYLOAD,2023-03-12 07:16:31,15.08840352,0.0001086,53.2181,182.3098,87.0898,273.0219,0.00017115,2.437e-05,0.0,0 STARLINK-5025,1 53920U 22119AL  23071.30314533  .00002437  00000-0  17115-3 0  9993,2 53920  53.2181 182.3098 0001086  87.0898 273.0219 15.08840352 26342,6917.879,95.438,540.496,538.993,0.0
53920.0,STARLINK-5025,PAYLOAD,2023-03-12 16:48:49,15.08860204,0.000147,53.217,180.5275,76.8203,283.2953,0.00040044,6.094e-05,0.0,0 STARLINK-5025,1 53920U 22119AL  23071.70057673  .00006094  00000-0  40044-3 0  9996,2 53920  53.2170 180.5275 0001470  76.8203 283.2953 15.08860204 26403,6917.819,95.436,540.701,538.667,0.0
53920.0,STARLINK-5025,PAYLOAD,2023-03-13 07:07:18,15.08838641,0.0001735,53.2173,177.852,72.5338,287.5844,3.217e-06,-2.37e-06,0.0,0 STARLINK-5025,1 53920U 22119AL  23072.29674454 -.00000237  00000-0  32170-5 0  9990,2 53920  53.2173 177.8520 0001735  72.5338 287.5844 15.08838641 26499,6917.885,95.438,540.95,538.549,0.0
53920.0,STARLINK-5025,PAYLOAD,2023-03-13 15:04:13,15.08846777,0.0001807,53.2161,176.361,97.7112,262.4085,6.7303e-05,7.83e-06,0.0,0 STARLINK-5025,1 53920U 22119AL  23072.62793775  .00000783  00000-0  67303-4 0  9995,2 53920  53.2161 176.3610 0001807  97.7112 262.4085 15.08846777 26543,6917.86,95.437,540.975,538.475,0.0
53920.0,STARLINK-5025,PAYLOAD,2023-03-14 13:19:37,15.0885113,0.0001546,53.2165,172.1995,83.3728,276.744,9.831e-05,1.277e-05,0.0,0 STARLINK-5025,1 53920U 22119AL  23073.55529678  .00001277  00000-0  98310-4 0  9998,2 53920  53.2165 172.1995 0001546  83.3728 276.7440 15.08851130 27106,6917.846,95.437,540.781,538.642,0.0
53920.0,STARLINK-5025,PAYLOAD,2023-03-14 16:30:23,15.08853433,0.000169,53.217,171.6033,88.836,271.2825,0.00026505,3.934e-05,0.0,0 STARLINK-5025,1 53920U 22119AL  23073.68777616  .00003934  00000-0  26505-3 0  9997,2 53920  53.2170 171.6033 0001690  88.8360 271.2825 15.08853433 26701,6917.839,95.437,540.873,538.535,0.0
53920.0,STARLINK-5025,PAYLOAD,2023-03-15 05:13:29,15.08847394,0.0002108,53.2143,169.2252,93.6301,266.4932,0.00024617,3.633e-05,0.0,0 STARLINK-5025,1 53920U 22119AL  23074.21769932  .00003633  00000-0  24617-3 0  9997,2 53920  53.2143 169.2252 0002108  93.6301 266.4932 15.08847394 26783,6917.858,95.437,541.181,538.265,0.0
53920.0,STARLINK-5025,PAYLOAD,2023-03-15 11:35:00,15.08864357,0.0002011,53.2171,168.0364,108.0708,252.0503,0.00042482,6.484e-05,0.0,0 STARLINK-5025,1 53920U 22119AL  23074.48264859  .00006484  00000-0  42482-3 0  9991,2 53920  53.2171 168.0364 0002011 108.0708 252.0503 15.08864357 26828,6917.806,95.436,541.062,538.28,0.0
53920.0,STARLINK-5025,PAYLOAD,2023-03-15 16:21:09,15.08871397,0.0002005,53.2147,167.1414,112.9398,247.1806,0.0005856,9.052e-05,0.0,0 STARLINK-5025,1 53920U 22119AL  23074.68136393  .00009052  00000-0  58560-3 0  9992,2 53920  53.2147 167.1414 0002005 112.9398 247.1806 15.08871397 27272,6917.784,95.436,541.036,538.262,0.0
53920.0,STARLINK-5025,PAYLOAD,2023-03-15 22:42:43,15.08841393,0.0002284,53.2164,165.9548,84.3833,275.7419,-8.4271e-06,-4.22e-06,0.0,0 STARLINK-5025,1 53920U 22119AL  23074.94633529 -.00000422  00000-0 -84271-5 0  9998,2 53920  53.2164 165.9548 0002284  84.3833 275.7419 15.08841393 26897,6917.876,95.437,541.321,538.161,0.0
53920.0,STARLINK-5025,PAYLOAD,2023-03-16 11:25:48,15.08830399,0.0001438,53.2181,163.5799,106.278,253.837,-0.00036045,-6.018e-05,0.0,0 STARLINK-5025,1 53920U 22119AL  23075.47625517 -.00006018  00000-0 -36045-3 0  9996,2 53920  53.2181 163.5799 0001438 106.2780 253.8370 15.08830399 27396,6917.91,95.438,540.77,538.78,0.0
53920.0,STARLINK-5025,PAYLOAD,2023-03-17 09:41:13,15.08816479,0.0001475,53.2165,159.4129,116.9589,243.1554,-0.0003399,-5.69e-05,0.0,0 STARLINK-5025,1 53920U 22119AL  23076.40363180 -.00005690  00000-0 -33990-3 0  9996,2 53920  53.2165 159.4129 0001475 116.9589 243.1554 15.08816479 27114,6917.952,95.439,540.838,538.797,0.0
53920.0,STARLINK-5025,PAYLOAD,2023-03-17 11:16:36,15.08815797,0.0001241,53.2169,159.1167,116.5368,243.5751,-0.00031425,-5.282e-05,0.0,0 STARLINK-5025,1 53920U 22119AL  23076.46987261 -.00005282  00000-0 -31425-3 0  9992,2 53920  53.2169 159.1167 0001241 116.5368 243.5751 15.08815797 27541,6917.954,95.439,540.678,538.961,0.0
